{
    "links": {
        "self": "http://www.neowsapp.com/rest/v1/neo/3603628?api_key=iIulBulltgU6a56xZRHN4H3l9WmuAYTsLGpBGhQ2"
    },
    "id": "3603628",
    "neo_reference_id": "3603628",
    "name": "(2012 JO4)",
    "designation": "2012 JO4",
    "nasa_jpl_url": "http://ssd.jpl.nasa.gov/sbdb.cgi?sstr=3603628",
    "absolute_magnitude_h": 24.9,
    "estimated_diameter": {
        "kilometers": {
            "estimated_diameter_min": 0.0278326768,
            "estimated_diameter_max": 0.0622357573
        },
        "meters": {
            "estimated_diameter_min": 27.8326768072,
            "estimated_diameter_max": 62.2357573367
        },
        "miles": {
            "estimated_diameter_min": 0.0172944182,
            "estimated_diameter_max": 0.0386714948
        },
        "feet": {
            "estimated_diameter_min": 91.3145593761,
            "estimated_diameter_max": 204.1855621004
        }
    },
    "is_potentially_hazardous_asteroid": false,
    "close_approach_data": [
        {
            "close_approach_date": "2012-05-04",
            "close_approach_date_full": "2012-May-04 23:34",
            "epoch_date_close_approach": 1336174440000,
            "relative_velocity": {
                "kilometers_per_second": "6.6180271472",
                "kilometers_per_hour": "23824.897729951",
                "miles_per_hour": "14803.864925591"
            },
            "miss_distance": {
                "astronomical": "0.0366553281",
                "lunar": "14.2589226309",
                "kilometers": "5483559.007911147",
                "miles": "3407325.5677299486"
            },
            "orbiting_body": "Earth"
        },
        {
            "close_approach_date": "2017-02-20",
            "close_approach_date_full": "2017-Feb-20 00:41",
            "epoch_date_close_approach": 1487551260000,
            "relative_velocity": {
                "kilometers_per_second": "18.6128243794",
                "kilometers_per_hour": "67006.167765799",
                "miles_per_hour": "41635.0268542544"
            },
            "miss_distance": {
                "astronomical": "0.415518547",
                "lunar": "161.636714783",
                "kilometers": "62160689.57669489",
                "miles": "38624861.444333882"
            },
            "orbiting_body": "Earth"
        },
        {
            "close_approach_date": "2125-02-23",
            "close_approach_date_full": "2125-Feb-23 10:43",
            "epoch_date_close_approach": 4895980980000,
            "relative_velocity": {
                "kilometers_per_second": "18.3343785455",
                "kilometers_per_hour": "66003.7627639084",
                "miles_per_hour": "41012.1713684963"
            },
            "miss_distance": {
                "astronomical": "0.4097484304",
                "lunar": "159.3921394256",
                "kilometers": "61297492.423683248",
                "miles": "38088495.6050669024"
            },
            "orbiting_body": "Earth"
        }
    ],
    "orbital_data": {
        "orbit_id": "10",
        "orbit_determination_date": "2017-04-06 08:49:51",
        "first_observation_date": "2012-05-12",
        "last_observation_date": "2012-05-27",
        "data_arc_in_days": 15,
        "observations_used": 83,
        "orbit_uncertainty": "7",
        "minimum_orbit_intersection": ".0250872",
        "jupiter_tisserand_invariant": "3.918",
        "epoch_osculation": "2459000.5",
        "eccentricity": ".4419060391241798",
        "semi_major_axis": "1.82094463677156",
        "inclination": "1.583795008498726",
        "ascending_node_longitude": "79.20768222652507",
        "orbital_period": "897.5187697267129",
        "perihelion_distance": "1.016258204871421",
        "perihelion_argument": "124.0405159569311",
        "aphelion_distance": "2.625631068671698",
        "perihelion_time": "2458727.871758788715",
        "mean_anomaly": "109.3527736093445",
        "mean_motion": ".4011058176639771",
        "equinox": "J2000",
        "orbit_class": {
            "orbit_class_type": "APO",
            "orbit_class_description": "Near-Earth asteroid orbits which cross the Earth’s orbit similar to that of 1862 Apollo",
            "orbit_class_range": "a (semi-major axis) > 1.0 AU; q (perihelion) < 1.017 AU"
        }
    },
    "is_sentry_object": false
}